GLOBALSTAR M068         
1 32266U 07048D   25115.69928513 -.00000047  00000+0  31435-3 0  9995
2 32266  51.9869 102.2552 0001172  25.2239 145.8454 12.62821796810925
GLOBALSTAR M079         
1 37188U 10054A   25115.93419642 -.00000086  00000+0  99069-4 0  9990
2 37188  52.0042 298.8526 0000971 120.4280  26.3983 12.62273493669850
GLOBALSTAR M074         
1 37189U 10054B   25115.77305410 -.00000081  00000+0  12585-3 0  9992
2 37189  52.0022 298.6751 0000656 104.5565 268.2994 12.62274530670445
GLOBALSTAR M076         
1 37190U 10054C   25115.90735140 -.00000067  00000+0  20644-3 0  9995
2 37190  52.0033 298.4300 0000683 120.6559  24.5922 12.62261797670174
GLOBALSTAR M077         
1 37191U 10054D   25115.70687162 -.00000096  00000+0  42410-4 0  9992
2 37191  52.0065 255.8822 0000700 119.0609 253.6320 12.62273629670527
GLOBALSTAR M075         
1 37192U 10054E   25115.89174122 -.00000077  00000+0  15098-3 0  9990
2 37192  51.9964 340.7649 0000699  86.8279 286.7719 12.62263941669248
GLOBALSTAR M073         
1 37193U 10054F   25115.65451208 -.00000116  00000+0 -67886-4 0  9996
2 37193  52.0052 255.2662 0000677 131.1038 242.6132 12.62270721671200
GLOBALSTAR M083         
1 37739U 11033A   25115.70076142 -.00000087  00000+0  92693-4 0  9996
2 37739  51.9848 203.9282 0000621 125.3200  39.2883 12.62263286640229
GLOBALSTAR M088         
1 37740U 11033B   25115.96003517 -.00000084  00000+0  11128-3 0  9992
2 37740  51.9715 108.6701 0000310  75.8596 308.5486 12.62265839635808
GLOBALSTAR M091         
1 37741U 11033C   25115.89655786 -.00000103  00000+0  43566-5 0  9991
2 37741  52.0002  72.3257 0000659  78.9842 316.0115 12.62267317636589
GLOBALSTAR M085         
1 37742U 11033D   25115.72243140 -.00000084  00000+0  11167-3 0  9999
2 37742  51.9891  23.9415 0000838  84.6834 298.8935 12.62267708637072
GLOBALSTAR M081         
1 37743U 11033E   25115.67080588 -.00000094  00000+0  52871-4 0  9998
2 37743  51.9988  26.8536 0000698  91.4695 297.0091 12.62262949637213
GLOBALSTAR M089         
1 37744U 11033F   25115.94439568 -.00000061  00000+0  23959-3 0  9993
2 37744  51.9954 340.2602 0000558  86.3860 286.7056 12.62269297638092
GLOBALSTAR M084         
1 38040U 11080A   25115.67168289 -.00000084  00000+0  10880-3 0  9998
2 38040  52.0001 208.3499 0000246 156.7534 355.8393 12.62265370616039
GLOBALSTAR M080         
1 38041U 11080B   25115.55373409 -.00000098  00000+0  31406-4 0  9991
2 38041  52.0054 210.2822 0000780  90.3766  16.3044 12.62262272616145
GLOBALSTAR M082         
1 38042U 11080C   25115.95696345 -.00000065  00000+0  21416-3 0  9996
2 38042  52.0055 164.5107 0000633  91.7771 338.1332 12.62265724616906
GLOBALSTAR M092         
1 38043U 11080D   25115.87238164 -.00000089  00000+0  80356-4 0  9994
2 38043  52.0079 255.1404 0000651 109.1849  56.5471 12.62263677615550
GLOBALSTAR M090         
1 38044U 11080E   25115.90097396 -.00000058  00000+0  25295-3 0  9995
2 38044  51.9865 158.5560 0000419 110.5637 304.7427 12.62269820617012
GLOBALSTAR M086         
1 38045U 11080F   25115.92941965 -.00000061  00000+0  23866-3 0  9994
2 38045  51.9874 159.0164 0000984 187.4200 237.6268 12.62269853616961
GLOBALSTAR M097         
1 39072U 13005A   25115.86249658 -.00000120  00000+0 -90929-4 0  9999
2 39072  52.0046  73.7101 0000459  94.9823 265.1096 12.62271733564280
GLOBALSTAR M093         
1 39073U 13005B   25115.83588357 -.00000106  00000+0 -14688-4 0  9991
2 39073  51.9817  67.1767 0000506  82.8432 277.2491 12.62263998564158
GLOBALSTAR M094         
1 39074U 13005C   25115.83600089 -.00000072  00000+0  17914-3 0  9994
2 39074  51.9982 341.5101 0000980 104.7430 255.3545 12.62270148565783
GLOBALSTAR M096         
1 39075U 13005D   25115.92844987 -.00000097  00000+0  35588-4 0  9997
2 39075  52.0099  29.7008 0000855  86.9089 273.1876 12.62270410564694
GLOBALSTAR M078         
1 39076U 13005E   25115.66413813 -.00000092  00000+0  66148-4 0  9990
2 39076  51.9851 115.0844 0001196  67.3404 292.7589 12.62261592563282
GLOBALSTAR M095         
1 39077U 13005F   25115.92824279 -.00000089  00000+0  80559-4 0  9990
2 39077  51.9778 111.5035 0000752  90.8817 269.2135 12.62269419563170
GLOBALSTAR M087         
1 52888U 22064A   25115.56294022 -.00000105  00000+0 -40597-5 0  9996
2 52888  51.9785 254.0193 0000813 117.5802 242.5147 12.62271304138395
